NORAD_CAT_ID,OBJECT_NAME,OBJECT_TYPE,EPOCH,MEAN_MOTION,ECCENTRICITY,INCLINATION,RA_OF_ASC_NODE,ARG_OF_PERICENTER,MEAN_ANOMALY,BSTAR,MEAN_MOTION_DOT,MEAN_MOTION_DDOT,TLE_LINE0,TLE_LINE1,TLE_LINE2,SEMIMAJOR_AXIS,PERIOD,APOGEE,PERIGEE,DECAYED
53396.0,STARLINK-4524,PAYLOAD,2023-12-06 01:32:07,15.08845105,0.0001404,53.2161,226.0143,101.7657,258.3492,-2.1372e-05,-6.28e-06,0.0,0 STARLINK-4524,1 53396U 22097J   23340.06397879 -.00000628  00000-0 -21372-4 0  9994,2 53396  53.2161 226.0143 0001404 101.7657 258.3492 15.08845105 73538,6917.865,95.437,540.701,538.759,0.0
53396.0,STARLINK-4524,PAYLOAD,2023-12-06 22:12:09,15.08831044,0.0001321,53.2161,222.1471,107.3109,252.8028,0.00010032,1.309e-05,0.0,0 STARLINK-4524,1 53396U 22097J   23340.92510501  .00001309  00000-0  10032-3 0  9993,2 53396  53.2161 222.1471 0001321 107.3109 252.8028 15.08831044 74151,6917.908,95.438,540.687,538.859,0.0
53396.0,STARLINK-4524,PAYLOAD,2023-12-07 01:22:55,15.08832153,0.0001319,53.2169,221.5501,106.7529,253.3608,0.00011029,1.467e-05,0.0,0 STARLINK-4524,1 53396U 22097J   23341.05758453  .00001467  00000-0  11029-3 0  9990,2 53396  53.2169 221.5501 0001319 106.7529 253.3608 15.08832153 73681,6917.904,95.438,540.682,538.857,0.0
53396.0,STARLINK-4524,PAYLOAD,2023-12-08 01:13:42,15.08839665,0.0001376,53.2172,217.0889,102.4851,257.6296,5.7686e-05,6.3e-06,0.0,0 STARLINK-4524,1 53396U 22097J   23342.05118332  .00000630  00000-0  57686-4 0  9998,2 53396  53.2172 217.0889 0001376 102.4851 257.6296 15.08839665 74325,6917.881,95.438,540.698,538.795,0.0
53396.0,STARLINK-4524,PAYLOAD,2023-12-10 00:55:15,15.08842365,0.0001249,53.2164,208.1689,104.8203,255.2927,7.1389e-05,8.49e-06,0.0,0 STARLINK-4524,1 53396U 22097J   23344.03837808  .00000849  00000-0  71389-4 0  9992,2 53396  53.2164 208.1689 0001249 104.8203 255.2927 15.08842365 74136,6917.873,95.437,540.602,538.874,0.0
53396.0,STARLINK-4524,PAYLOAD,2023-12-10 21:35:17,15.08838404,0.0001394,53.2166,204.3014,89.929,270.1862,-8.6575e-06,-4.26e-06,0.0,0 STARLINK-4524,1 53396U 22097J   23344.89950248 -.00000426  00000-0 -86575-5 0  9997,2 53396  53.2166 204.3014 0001394  89.9290 270.1862 15.08838404 74759,6917.885,95.438,540.715,538.786,0.0
53396.0,STARLINK-4524,PAYLOAD,2023-12-11 19:50:40,15.08834794,0.0001386,53.2165,200.1407,92.0266,268.0884,4.797e-05,4.76e-06,0.0,0 STARLINK-4524,1 53396U 22097J   23345.82686341  .00000476  00000-0  47970-4 0  9999,2 53396  53.2165 200.1407 0001386  92.0266 268.0884 15.08834794 74890,6917.896,95.438,540.72,538.802,0.0
53396.0,STARLINK-4524,PAYLOAD,2023-12-12 19:41:28,15.08835137,0.0001377,53.2164,195.6793,98.4052,261.7097,4.4195e-05,4.15e-06,0.0,0 STARLINK-4524,1 53396U 22097J   23346.82046605  .00000415  00000-0  44195-4 0  9992,2 53396  53.2164 195.6793 0001377  98.4052 261.7097 15.08835137 74559,6917.895,95.438,540.713,538.808,0.0
53396.0,STARLINK-4524,PAYLOAD,2023-12-12 21:16:51,15.08835942,0.0001357,53.2163,195.382,96.41,263.7047,4.9364e-05,4.98e-06,0.0,0 STARLINK-4524,1 53396U 22097J   23346.88670587  .00000498  00000-0  49364-4 0  9994,2 53396  53.2163 195.3820 0001357  96.4100 263.7047 15.08835942 75053,6917.893,95.438,540.697,538.819,0.0
53396.0,STARLINK-4524,PAYLOAD,2023-12-13 21:07:38,15.08840334,0.0001305,53.2161,190.9204,91.1218,268.9924,7.2649e-05,8.69e-06,0.0,0 STARLINK-4524,1 53396U 22097J   23347.88030378  .00000869  00000-0  72649-4 0  9997,2 53396  53.2161 190.9204 0001305  91.1218 268.9924 15.08840334 75202,6917.879,95.438,540.647,538.842,0.0
53396.0,STARLINK-4524,PAYLOAD,2023-12-14 20:58:25,15.08840886,0.0001303,53.2162,186.4592,85.6966,274.4175,5.6933e-05,6.18e-06,0.0,0 STARLINK-4524,1 53396U 22097J   23348.87390517  .00000618  00000-0  56933-4 0  9991,2 53396  53.2162 186.4592 0001303  85.6966 274.4175 15.08840886 75357,6917.878,95.437,540.644,538.841,0.0
53396.0,STARLINK-4524,PAYLOAD,2023-12-15 19:13:49,15.08839269,0.0001611,53.2168,182.2952,69.2393,290.8772,2.1825e-05,5.9e-07,0.0,0 STARLINK-4524,1 53396U 22097J   23349.80126915  .00000059  00000-0  21825-4 0  9995,2 53396  53.2168 182.2952 0001611  69.2393 290.8772 15.08839269 75001,6917.883,95.438,540.862,538.633,0.0
53396.0,STARLINK-4524,PAYLOAD,2023-12-15 20:49:12,15.08839802,0.0001598,53.2169,182.0007,72.7289,287.3878,2.6275e-05,1.3e-06,0.0,0 STARLINK-4524,1 53396U 22097J   23349.86750874  .00000130  00000-0  26275-4 0  9992,2 53396  53.2169 182.0007 0001598  72.7289 287.3878 15.08839802 75504,6917.881,95.438,540.851,538.641,0.0
53396.0,STARLINK-4524,PAYLOAD,2023-12-16 19:04:36,15.08839836,0.0001601,53.2166,177.8392,74.1586,285.9583,5.6286e-05,6.08e-06,0.0,0 STARLINK-4524,1 53396U 22097J   23350.79486882  .00000608  00000-0  56286-4 0  9996,2 53396  53.2166 177.8392 0001601  74.1586 285.9583 15.08839836 75640,6917.881,95.438,540.853,538.638,0.0
53396.0,STARLINK-4524,PAYLOAD,2023-12-17 18:55:23,15.08845304,0.000148,53.2163,173.3759,86.4967,273.6195,9.9215e-05,1.292e-05,0.0,0 STARLINK-4524,1 53396U 22097J   23351.78846230  .00001292  00000-0  99215-4 0  9992,2 53396  53.2163 173.3759 0001480  86.4967 273.6195 15.08845304 75302,6917.864,95.437,540.753,538.705,0.0
53396.0,STARLINK-4524,PAYLOAD,2023-12-18 18:46:10,15.08830653,0.00015,53.217,168.917,104.0422,256.0737,0.00016245,2.298e-05,0.0,0 STARLINK-4524,1 53396U 22097J   23352.78206672  .00002298  00000-0  16245-3 0  9991,2 53396  53.2170 168.9170 0001500 104.0422 256.0737 15.08830653 75457,6917.909,95.438,540.812,538.736,0.0
53396.0,STARLINK-4524,PAYLOAD,2023-12-19 18:36:57,15.08833117,0.0001591,53.2169,164.457,109.4433,250.6731,9.6389e-05,1.246e-05,0.0,0 STARLINK-4524,1 53396U 22097J   23353.77566694  .00001246  00000-0  96389-4 0  9994,2 53396  53.2169 164.4570 0001591 109.4433 250.6731 15.08833117 76094,6917.901,95.438,540.867,538.666,0.0
53396.0,STARLINK-4524,PAYLOAD,2023-12-20 16:52:22,15.088324,0.0001472,53.2174,160.295,106.8684,253.247,-1.044e-05,-4.54e-06,0.0,0 STARLINK-4524,1 53396U 22097J   23354.70303366 -.00000454  00000-0 -10440-4 0  9999,2 53396  53.2174 160.2950 0001472 106.8684 253.2470 15.08832400 75747,6917.904,95.438,540.787,538.75,0.0
53396.0,STARLINK-4524,PAYLOAD,2023-12-21 15:07:45,15.08835555,0.0001574,53.2181,156.1316,111.8246,248.2913,7.2411e-05,8.64e-06,0.0,0 STARLINK-4524,1 53396U 22097J   23355.63039207  .00000864  00000-0  72411-4 0  9991,2 53396  53.2181 156.1316 0001574 111.8246 248.2913 15.08835555 76378,6917.894,95.438,540.848,538.67,0.0
53396.0,STARLINK-4524,PAYLOAD,2023-12-22 18:09:18,15.08845247,0.0001321,53.2174,151.0751,78.2483,281.8657,0.00014717,2.055e-05,0.0,0 STARLINK-4524,1 53396U 22097J   23356.75646750  .00002055  00000-0  14717-3 0  9990,2 53396  53.2174 151.0751 0001321  78.2483 281.8657 15.08845247 76058,6917.864,95.437,540.643,538.816,0.0
53396.0,STARLINK-4524,PAYLOAD,2023-12-23 10:03:10,15.08843133,0.0001515,53.2173,148.107,70.9815,289.1341,5.8587e-05,6.45e-06,0.0,0 STARLINK-4524,1 53396U 22097J   23357.41887222  .00000645  00000-0  58587-4 0  9992,2 53396  53.2173 148.1070 0001515  70.9815 289.1341 15.08843133 76155,6917.871,95.437,540.784,538.688,0.0
53396.0,STARLINK-4524,PAYLOAD,2023-12-23 14:49:19,15.08843089,0.0001234,53.2162,147.2101,84.7311,275.3822,3.7322e-05,3.06e-06,0.0,0 STARLINK-4524,1 53396U 22097J   23357.61759171  .00000306  00000-0  37322-4 0  9993,2 53396  53.2162 147.2101 0001234  84.7311 275.3822 15.08843089 76678,6917.871,95.437,540.59,538.882,0.0
53396.0,STARLINK-4524,PAYLOAD,2023-12-23 16:24:43,15.08843569,0.000122,53.2163,146.9126,85.6375,274.4756,4.1353e-05,3.7e-06,0.0,0 STARLINK-4524,1 53396U 22097J   23357.68383106  .00000370  00000-0  41353-4 0  9991,2 53396  53.2163 146.9126 0001220  85.6375 274.4756 15.08843569 76687,6917.869,95.437,540.578,538.89,0.0
53396.0,STARLINK-4524,PAYLOAD,2023-12-24 14:40:06,15.08837797,0.0001275,53.216,142.7492,110.5837,249.5292,0.00010605,1.4e-05,0.0,0 STARLINK-4524,1 53396U 22097J   23358.61118972  .00001400  00000-0  10605-3 0  9992,2 53396  53.2160 142.7492 0001275 110.5837 249.5292 15.08837797 76825,6917.887,95.438,540.634,538.87,0.0
53396.0,STARLINK-4524,PAYLOAD,2023-12-24 16:15:29,15.08847415,0.0001144,53.2159,142.452,85.8118,274.3005,1.2764e-05,-8.5e-07,0.0,0 STARLINK-4524,1 53396U 22097J   23358.67742778 -.00000085  00000-0  12764-4 0  9993,2 53396  53.2159 142.4520 0001144  85.8118 274.3005 15.08847415 76346,6917.858,95.437,540.514,538.931,0.0
53396.0,STARLINK-4524,PAYLOAD,2023-12-25 09:44:44,15.08838625,0.000138,53.2159,139.1824,68.2206,291.8933,5.5975e-05,6.03e-06,0.0,0 STARLINK-4524,1 53396U 22097J   23359.40607291  .00000603  00000-0  55975-4 0  9991,2 53396  53.2159 139.1824 0001380  68.2206 291.8933 15.08838625 76450,6917.885,95.438,540.704,538.795,0.0
53396.0,STARLINK-4524,PAYLOAD,2023-12-25 14:30:53,15.08839507,0.0001225,53.2161,138.2893,84.4551,275.6581,4.9892e-05,5.06e-06,0.0,0 STARLINK-4524,1 53396U 22097J   23359.60479143  .00000506  00000-0  49892-4 0  9999,2 53396  53.2161 138.2893 0001225  84.4551 275.6581 15.08839507 76976,6917.882,95.438,540.594,538.899,0.0
53396.0,STARLINK-4524,PAYLOAD,2023-12-25 16:06:17,15.08840367,0.0001213,53.2161,137.9919,84.8207,275.2923,5.4934e-05,5.87e-06,0.0,0 STARLINK-4524,1 53396U 22097J   23359.67103061  .00000587  00000-0  54934-4 0  9991,2 53396  53.2161 137.9919 0001213  84.8207 275.2923 15.08840367 76983,6917.879,95.438,540.583,538.905,0.0
53396.0,STARLINK-4524,PAYLOAD,2023-12-26 09:35:32,15.08807849,0.0001119,53.2162,134.7218,91.7624,268.3497,0.00031669,4.752e-05,0.0,0 STARLINK-4524,1 53396U 22097J   23360.39967998  .00004752  00000-0  31669-3 0  9996,2 53396  53.2162 134.7218 0001119  91.7624 268.3497 15.08807849 76602,6917.979,95.44,540.618,539.07,0.0
53396.0,STARLINK-4524,PAYLOAD,2023-12-26 14:21:41,15.08830357,0.0001126,53.2165,133.829,87.4492,272.6629,4.6876e-05,4.58e-06,0.0,0 STARLINK-4524,1 53396U 22097J   23360.59839878  .00000458  00000-0  46876-4 0  9999,2 53396  53.2165 133.8290 0001126  87.4492 272.6629 15.08830357 77121,6917.91,95.438,540.554,538.996,0.0
